{
  "links" : {
    "next" : "https://api.nasa.gov/neo/rest/v1/feed?start_date=1999-10-16&end_date=1999-10-16&detailed=true&api_key=t0TVs3DtDT2H8Oy2Zy8m2eVrNsAVKAexjcZXUckd",
    "prev" : "https://api.nasa.gov/neo/rest/v1/feed?start_date=1999-10-14&end_date=1999-10-14&detailed=true&api_key=t0TVs3DtDT2H8Oy2Zy8m2eVrNsAVKAexjcZXUckd",
    "self" : "https://api.nasa.gov/neo/rest/v1/feed?start_date=1999-10-15&end_date=1999-10-15&detailed=true&api_key=t0TVs3DtDT2H8Oy2Zy8m2eVrNsAVKAexjcZXUckd"
  },
  "element_count" : 12,
  "near_earth_objects" : {
    "1999-10-15" : [ {
      "links" : {
        "self" : "https://api.nasa.gov/neo/rest/v1/neo/2209215?api_key=t0TVs3DtDT2H8Oy2Zy8m2eVrNsAVKAexjcZXUckd"
      },
      "neo_reference_id" : "2209215",
      "name" : "209215 (2003 WP25)",
      "nasa_jpl_url" : "http://ssd.jpl.nasa.gov/sbdb.cgi?sstr=2209215",
      "absolute_magnitude_h" : 24.2,
      "estimated_diameter" : {
        "kilometers" : {
          "estimated_diameter_min" : 0.0384197891,
          "estimated_diameter_max" : 0.0859092601
        },
        "meters" : {
          "estimated_diameter_min" : 38.4197891064,
          "estimated_diameter_max" : 85.9092601232
        },
        "miles" : {
          "estimated_diameter_min" : 0.0238729428,
          "estimated_diameter_max" : 0.0533815229
        },
        "feet" : {
          "estimated_diameter_min" : 126.0491808919,
          "estimated_diameter_max" : 281.8545369825
        }
      },
      "is_potentially_hazardous_asteroid" : false,
      "close_approach_data" : [ {
        "close_approach_date" : "1999-10-15",
        "epoch_date_close_approach" : 939970800000,
        "relative_velocity" : {
          "kilometers_per_second" : "13.193835114",
          "kilometers_per_hour" : "47497.8064105044",
          "miles_per_hour" : "29513.2897665715"
        },
        "miss_distance" : {
          "astronomical" : "0.3015047899",
          "lunar" : "117.2853622437",
          "kilometers" : "45104476",
          "miles" : "28026622"
        },
        "orbiting_body" : "Earth"
      } ],
      "orbital_data" : {
        "orbit_id" : "23",
        "orbit_determination_date" : "2017-04-06 09:25:27",
        "orbit_uncertainty" : "1",
        "minimum_orbit_intersection" : ".0223369",
        "jupiter_tisserand_invariant" : "6.126",
        "epoch_osculation" : "2458000.5",
        "eccentricity" : ".1210463763734535",
        "semi_major_axis" : ".9889007909809722",
        "inclination" : "2.561980310222299",
        "ascending_node_longitude" : "40.76996508539975",
        "orbital_period" : "359.1927095144085",
        "perihelion_distance" : ".8691979336398835",
        "perihelion_argument" : "226.4150054207777",
        "aphelion_distance" : "1.108603648322061",
        "perihelion_time" : "2457858.100290258996",
        "mean_anomaly" : "142.7197550197077",
        "mean_motion" : "1.002247513560848",
        "equinox" : "J2000"
      }
    }, {
      "links" : {
        "self" : "https://api.nasa.gov/neo/rest/v1/neo/2349507?api_key=t0TVs3DtDT2H8Oy2Zy8m2eVrNsAVKAexjcZXUckd"
      },
      "neo_reference_id" : "2349507",
      "name" : "349507 (2008 QY)",
      "nasa_jpl_url" : "http://ssd.jpl.nasa.gov/sbdb.cgi?sstr=2349507",
      "absolute_magnitude_h" : 18.6,
      "estimated_diameter" : {
        "kilometers" : {
          "estimated_diameter_min" : 0.5064714588,
          "estimated_diameter_max" : 1.1325046106
        },
        "meters" : {
          "estimated_diameter_min" : 506.4714588346,
          "estimated_diameter_max" : 1132.5046106177
        },
        "miles" : {
          "estimated_diameter_min" : 0.3147066768,
          "estimated_diameter_max" : 0.7037055224
        },
        "feet" : {
          "estimated_diameter_min" : 1661.651821003,
          "estimated_diameter_max" : 3715.566426699
        }
      },
      "is_potentially_hazardous_asteroid" : true,
      "close_approach_data" : [ {
        "close_approach_date" : "1999-10-15",
        "epoch_date_close_approach" : 939970800000,
        "relative_velocity" : {
          "kilometers_per_second" : "28.7916288336",
          "kilometers_per_hour" : "103649.8638009773",
          "miles_per_hour" : "64403.9945378906"
        },
        "miss_distance" : {
          "astronomical" : "0.2935467474",
          "lunar" : "114.1896820068",
          "kilometers" : "43913968",
          "miles" : "27286874"
        },
        "orbiting_body" : "Earth"
      } ],
      "orbital_data" : {
        "orbit_id" : "73",
        "orbit_determination_date" : "2017-04-06 09:23:07",
        "orbit_uncertainty" : "0",
        "minimum_orbit_intersection" : ".0303685",
        "jupiter_tisserand_invariant" : "5.207",
        "epoch_osculation" : "2458000.5",
        "eccentricity" : ".5814409312834139",
        "semi_major_axis" : "1.167365617407996",
        "inclination" : "13.57854064413534",
        "ascending_node_longitude" : "1.982712839338932",
        "orbital_period" : "460.6899875816701",
        "perihelion_distance" : ".4886114656740535",
        "perihelion_argument" : "254.8088939963733",
        "aphelion_distance" : "1.846119769141939",
        "perihelion_time" : "2457863.857960464044",
        "mean_anomaly" : "106.7770855867012",
        "mean_motion" : ".7814365619052661",
        "equinox" : "J2000"
      }
    }, {
      "links" : {
        "self" : "https://api.nasa.gov/neo/rest/v1/neo/2374267?api_key=t0TVs3DtDT2H8Oy2Zy8m2eVrNsAVKAexjcZXUckd"
      },
      "neo_reference_id" : "2374267",
      "name" : "374267 (2005 LW)",
      "nasa_jpl_url" : "http://ssd.jpl.nasa.gov/sbdb.cgi?sstr=2374267",
      "absolute_magnitude_h" : 18.9,
      "estimated_diameter" : {
        "kilometers" : {
          "estimated_diameter_min" : 0.4411182,
          "estimated_diameter_max" : 0.9863702813
        },
        "meters" : {
          "estimated_diameter_min" : 441.1181999969,
          "estimated_diameter_max" : 986.3702813054
        },
        "miles" : {
          "estimated_diameter_min" : 0.2740980571,
          "estimated_diameter_max" : 0.6129018881
        },
        "feet" : {
          "estimated_diameter_min" : 1447.2382352778,
          "estimated_diameter_max" : 3236.1230737181
        }
      },
      "is_potentially_hazardous_asteroid" : false,
      "close_approach_data" : [ {
        "close_approach_date" : "1999-10-15",
        "epoch_date_close_approach" : 939970800000,
        "relative_velocity" : {
          "kilometers_per_second" : "25.6462477466",
          "kilometers_per_hour" : "92326.4918878025",
          "miles_per_hour" : "57368.0915843959"
        },
        "miss_distance" : {
          "astronomical" : "0.2040933581",
          "lunar" : "79.3923110962",
          "kilometers" : "30531932",
          "miles" : "18971662"
        },
        "orbiting_body" : "Earth"
      } ],
      "orbital_data" : {
        "orbit_id" : "44",
        "orbit_determination_date" : "2017-04-06 09:22:27",
        "orbit_uncertainty" : "0",
        "minimum_orbit_intersection" : ".0519766",
        "jupiter_tisserand_invariant" : "4.361",
        "epoch_osculation" : "2458000.5",
        "eccentricity" : ".6404381208827098",
        "semi_major_axis" : "1.467074579137636",
        "inclination" : "3.132150764319822",
        "ascending_node_longitude" : "138.1423816404462",
        "orbital_period" : "649.0478485920388",
        "perihelion_distance" : ".5275040924799359",
        "perihelion_argument" : "354.715847655905",
        "aphelion_distance" : "2.406645065795335",
        "perihelion_time" : "2458007.673060253537",
        "mean_anomaly" : "356.0214001219249",
        "mean_motion" : ".5546586446298802",
        "equinox" : "J2000"
      }
    } ]
  }
}